{
 "type": "FeatureCollection",
 "features": [
  {
   "type": "Feature",
   "geometry": {
    "type": "Polygon",
    "coordinates": [
     [
      [
       33.0,
       39.0
      ],
      [
       33.02,
       39.0
      ],
      [
       33.02,
       39.02
      ],
      [
       33.0,
       39.02
      ],
      [
       33.0,
       39.0
      ]
     ],
     [
      [
       33.004,
       39.004
      ],
      [
       33.004,
       39.008
      ],
      [
       33.008,
       39.008
      ],
      [
       33.008,
       39.004
      ],
      [
       33.004,
       39.004
      ]
     ],
     [
      [
       33.012,
       39.012
      ],
      [
       33.012,
       39.016
      ],
      [
       33.016,
       39.016
      ],
      [
       33.016,
       39.012
      ],
      [
       33.012,
       39.012
      ]
     ]
    ]
   },
   "properties": {
    "parcel_id": "P-001",
    "area_class": "urban"
   }
  }
 ]
}