{
 "type": "FeatureCollection",
 "features": [
  {
   "type": "Feature",
   "geometry": {
    "type": "MultiPolygon",
    "coordinates": [
     [
      [
       [
        33.0,
        39.03
       ],
       [
        33.004,
        39.03
       ],
       [
        33.004,
        39.034
       ],
       [
        33.0,
        39.034
       ],
       [
        33.0,
        39.03
       ]
      ]
     ],
     [
      [
       [
        33.01,
        39.03
       ],
       [
        33.014,
        39.03
       ],
       [
        33.014,
        39.034
       ],
       [
        33.01,
        39.034
       ],
       [
        33.01,
        39.03
       ]
      ]
     ],
     [
      [
       [
        33.02,
        39.03
       ],
       [
        33.024,
        39.03
       ],
       [
        33.024,
        39.034
       ],
       [
        33.02,
        39.034
       ],
       [
        33.02,
        39.03
       ]
      ]
     ]
    ]
   },
   "properties": {
    "holding_id": "H-77",
    "part_count": 3
   }
  }
 ]
}