<?xml version="1.0" encoding="UTF-8"?>
<kml xmlns="http://www.opengis.net/kml/2.2">
 <Document>
  <name>F17 styled</name>
  <Style id="thickRed">
   <LineStyle><color>ff0000ff</color><width>4</width></LineStyle>
   <PolyStyle><color>7f0000ff</color></PolyStyle>
  </Style>
  <Style id="greenPin">
   <IconStyle><color>ff00ff00</color><scale>1.4</scale>
    <Icon><href>http://maps.google.com/mapfiles/kml/paddle/grn-circle.png</href></Icon>
   </IconStyle>
  </Style>
  <Placemark>
   <name>styled polygon</name><styleUrl>#thickRed</styleUrl>
   <Polygon><outerBoundaryIs><LinearRing><coordinates>
    33.0,39.12,0 33.01,39.12,0 33.01,39.13,0 33.0,39.13,0 33.0,39.12,0
   </coordinates></LinearRing></outerBoundaryIs></Polygon>
  </Placemark>
  <Placemark>
   <name>styled point</name><styleUrl>#greenPin</styleUrl>
   <Point><coordinates>33.02,39.125,0</coordinates></Point>
  </Placemark>
 </Document>
</kml>
